CCSDS_OMM_VERS = 2.0
CREATION_DATE  = 
ORIGINATOR     = 

OBJECT_NAME    = STARLINK-36040
OBJECT_ID      = 2025-270AC
CENTER_NAME    = EARTH
REF_FRAME      = TEME
TIME_SYSTEM    = UTC
MEAN_ELEMENT_THEORY = SGP/SGP4

EPOCH          = 2025-12-26T16:54:45.952128
MEAN_MOTION    = 15.40718211
ECCENTRICITY   = .0001136
INCLINATION    = 42.9990
RA_OF_ASC_NODE = 111.8319
ARG_OF_PERICENTER = 273.5808
MEAN_ANOMALY   = 86.4918

EPHEMERIS_TYPE = 0
CLASSIFICATION_TYPE = U
NORAD_CAT_ID   = 66614
ELEMENT_SET_NO = 999
REV_AT_EPOCH   = 634
BSTAR          = .11925E-2
MEAN_MOTION_DOT = .49868E-3
MEAN_MOTION_DDOT = 0

CCSDS_OMM_VERS = 2.0
CREATION_DATE  = 
ORIGINATOR     = 

OBJECT_NAME    = STARLINK-35988
OBJECT_ID      = 2025-270AD
CENTER_NAME    = EARTH
REF_FRAME      = TEME
TIME_SYSTEM    = UTC
MEAN_ELEMENT_THEORY = SGP/SGP4

EPOCH          = 2025-12-25T16:20:27.897216
MEAN_MOTION    = 15.40700329
ECCENTRICITY   = .00016951
INCLINATION    = 43.0013
RA_OF_ASC_NODE = 117.9088
ARG_OF_PERICENTER = 260.6340
MEAN_ANOMALY   = 99.4325

EPHEMERIS_TYPE = 0
CLASSIFICATION_TYPE = U
NORAD_CAT_ID   = 66615
ELEMENT_SET_NO = 999
REV_AT_EPOCH   = 618
BSTAR          = .10609961E-2
MEAN_MOTION_DOT = .44275E-3
MEAN_MOTION_DDOT = 0

CCSDS_OMM_VERS = 2.0
CREATION_DATE  = 
ORIGINATOR     = 

OBJECT_NAME    = STARLINK-35391
OBJECT_ID      = 2025-270AE
CENTER_NAME    = EARTH
REF_FRAME      = TEME
TIME_SYSTEM    = UTC
MEAN_ELEMENT_THEORY = SGP/SGP4

EPOCH          = 2025-12-26T16:48:18.946656
MEAN_MOTION    = 15.40717812
ECCENTRICITY   = .0001272
INCLINATION    = 42.9999
RA_OF_ASC_NODE = 111.7954
ARG_OF_PERICENTER = 264.6614
MEAN_ANOMALY   = 95.4097

EPHEMERIS_TYPE = 0
CLASSIFICATION_TYPE = U
NORAD_CAT_ID   = 66616
ELEMENT_SET_NO = 999
REV_AT_EPOCH   = 661
BSTAR          = .19933E-2
MEAN_MOTION_DOT = .83934E-3
MEAN_MOTION_DDOT = 0

CCSDS_OMM_VERS = 2.0
CREATION_DATE  = 
ORIGINATOR     = 

OBJECT_NAME    = STARLINK-35940
OBJECT_ID      = 2025-271A
CENTER_NAME    = EARTH
REF_FRAME      = TEME
TIME_SYSTEM    = UTC
MEAN_ELEMENT_THEORY = SGP/SGP4

EPOCH          = 2025-12-25T15:04:28.881120
MEAN_MOTION    = 15.39600088
ECCENTRICITY   = .0001206
INCLINATION    = 53.1613
RA_OF_ASC_NODE = 126.3554
ARG_OF_PERICENTER = 97.0516
MEAN_ANOMALY   = 263.0626

EPHEMERIS_TYPE = 0
CLASSIFICATION_TYPE = U
NORAD_CAT_ID   = 66617
ELEMENT_SET_NO = 999
REV_AT_EPOCH   = 619
BSTAR          = .10268E-2
MEAN_MOTION_DOT = .40863E-3
MEAN_MOTION_DDOT = 0

CCSDS_OMM_VERS = 2.0
CREATION_DATE  = 
ORIGINATOR     = 

OBJECT_NAME    = STARLINK-35970
OBJECT_ID      = 2025-271B
CENTER_NAME    = EARTH
REF_FRAME      = TEME
TIME_SYSTEM    = UTC
MEAN_ELEMENT_THEORY = SGP/SGP4

EPOCH          = 2025-12-26T18:00:02.998944
MEAN_MOTION    = 15.39618863
ECCENTRICITY   = .0000897
INCLINATION    = 53.1604
RA_OF_ASC_NODE = 120.3949
ARG_OF_PERICENTER = 66.9018
MEAN_ANOMALY   = 11.5906

EPHEMERIS_TYPE = 0
CLASSIFICATION_TYPE = U
NORAD_CAT_ID   = 66618
ELEMENT_SET_NO = 999
REV_AT_EPOCH   = 606
BSTAR          = .22576E-2
MEAN_MOTION_DOT = .90983E-3
MEAN_MOTION_DDOT = 0

CCSDS_OMM_VERS = 2.0
CREATION_DATE  = 
ORIGINATOR     = 

OBJECT_NAME    = STARLINK-35951
OBJECT_ID      = 2025-271C
CENTER_NAME    = EARTH
REF_FRAME      = TEME
TIME_SYSTEM    = UTC
MEAN_ELEMENT_THEORY = SGP/SGP4

EPOCH          = 2025-12-26T18:06:53.735040
MEAN_MOTION    = 15.39627642
ECCENTRICITY   = .0001178
INCLINATION    = 53.1595
RA_OF_ASC_NODE = 120.5838
ARG_OF_PERICENTER = 71.2595
MEAN_ANOMALY   = 288.8538

EPHEMERIS_TYPE = 0
CLASSIFICATION_TYPE = U
NORAD_CAT_ID   = 66619
ELEMENT_SET_NO = 999
REV_AT_EPOCH   = 637
BSTAR          = .10804E-2
MEAN_MOTION_DOT = .43071E-3
MEAN_MOTION_DDOT = 0

CCSDS_OMM_VERS = 2.0
CREATION_DATE  = 
ORIGINATOR     = 

OBJECT_NAME    = STARLINK-35936
OBJECT_ID      = 2025-271D
CENTER_NAME    = EARTH
REF_FRAME      = TEME
TIME_SYSTEM    = UTC
MEAN_ELEMENT_THEORY = SGP/SGP4

EPOCH          = 2025-12-26T15:13:18.973632
MEAN_MOTION    = 15.39621309
ECCENTRICITY   = .0001112
INCLINATION    = 53.1589
RA_OF_ASC_NODE = 121.2574
ARG_OF_PERICENTER = 85.9433
MEAN_ANOMALY   = 274.1699

EPHEMERIS_TYPE = 0
CLASSIFICATION_TYPE = U
NORAD_CAT_ID   = 66620
ELEMENT_SET_NO = 999
REV_AT_EPOCH   = 635
BSTAR          = .79849E-3
MEAN_MOTION_DOT = .31673E-3
MEAN_MOTION_DDOT = 0

CCSDS_OMM_VERS = 2.0
CREATION_DATE  = 
ORIGINATOR     = 

OBJECT_NAME    = STARLINK-35847
OBJECT_ID      = 2025-271E
CENTER_NAME    = EARTH
REF_FRAME      = TEME
TIME_SYSTEM    = UTC
MEAN_ELEMENT_THEORY = SGP/SGP4

EPOCH          = 2025-12-26T18:00:02.998944
MEAN_MOTION    = 15.39545718
ECCENTRICITY   = .0001387
INCLINATION    = 53.1603
RA_OF_ASC_NODE = 120.3431
ARG_OF_PERICENTER = 60.0715
MEAN_ANOMALY   = 44.3218

EPHEMERIS_TYPE = 0
CLASSIFICATION_TYPE = U
NORAD_CAT_ID   = 66621
ELEMENT_SET_NO = 999
REV_AT_EPOCH   = 613
BSTAR          = .21464E-2
MEAN_MOTION_DOT = .86219E-3
MEAN_MOTION_DDOT = 0

CCSDS_OMM_VERS = 2.0
CREATION_DATE  = 
ORIGINATOR     = 

OBJECT_NAME    = STARLINK-35950
OBJECT_ID      = 2025-271F
CENTER_NAME    = EARTH
REF_FRAME      = TEME
TIME_SYSTEM    = UTC
MEAN_ELEMENT_THEORY = SGP/SGP4

EPOCH          = 2025-12-25T19:18:10.447776
MEAN_MOTION    = 15.39633449
ECCENTRICITY   = .00015196
INCLINATION    = 53.1597
RA_OF_ASC_NODE = 125.3190
ARG_OF_PERICENTER = 88.4563
MEAN_ANOMALY   = 271.6616

EPHEMERIS_TYPE = 0
CLASSIFICATION_TYPE = U
NORAD_CAT_ID   = 66622
ELEMENT_SET_NO = 999
REV_AT_EPOCH   = 622
BSTAR          = .54750033E-3
MEAN_MOTION_DOT = .21572E-3
MEAN_MOTION_DDOT = 0

CCSDS_OMM_VERS = 2.0
CREATION_DATE  = 
ORIGINATOR     = 

OBJECT_NAME    = STARLINK-35920
OBJECT_ID      = 2025-271G
CENTER_NAME    = EARTH
REF_FRAME      = TEME
TIME_SYSTEM    = UTC
MEAN_ELEMENT_THEORY = SGP/SGP4

EPOCH          = 2025-12-26T14:13:16.250016
MEAN_MOTION    = 15.39650130
ECCENTRICITY   = .0000427
INCLINATION    = 53.1606
RA_OF_ASC_NODE = 121.7067
ARG_OF_PERICENTER = 62.2660
MEAN_ANOMALY   = 297.8388

EPHEMERIS_TYPE = 0
CLASSIFICATION_TYPE = U
NORAD_CAT_ID   = 66623
ELEMENT_SET_NO = 999
REV_AT_EPOCH   = 634
BSTAR          = .99486E-3
MEAN_MOTION_DOT = .39641E-3
MEAN_MOTION_DDOT = 0

CCSDS_OMM_VERS = 2.0
CREATION_DATE  = 
ORIGINATOR     = 

OBJECT_NAME    = STARLINK-35927
OBJECT_ID      = 2025-271H
CENTER_NAME    = EARTH
REF_FRAME      = TEME
TIME_SYSTEM    = UTC
MEAN_ELEMENT_THEORY = SGP/SGP4

EPOCH          = 2025-12-26T18:00:02.998944
MEAN_MOTION    = 15.39568029
ECCENTRICITY   = .000079
INCLINATION    = 53.1600
RA_OF_ASC_NODE = 120.5584
ARG_OF_PERICENTER = 73.9280
MEAN_ANOMALY   = 285.5919

EPHEMERIS_TYPE = 0
CLASSIFICATION_TYPE = U
NORAD_CAT_ID   = 66624
ELEMENT_SET_NO = 999
REV_AT_EPOCH   = 605
BSTAR          = .18842E-2
MEAN_MOTION_DOT = .75586E-3
MEAN_MOTION_DDOT = 0

CCSDS_OMM_VERS = 2.0
CREATION_DATE  = 
ORIGINATOR     = 

OBJECT_NAME    = STARLINK-35929
OBJECT_ID      = 2025-271J
CENTER_NAME    = EARTH
REF_FRAME      = TEME
TIME_SYSTEM    = UTC
MEAN_ELEMENT_THEORY = SGP/SGP4

EPOCH          = 2025-12-26T15:20:00.070080
MEAN_MOTION    = 15.39616872
ECCENTRICITY   = .0001083
INCLINATION    = 53.1600
RA_OF_ASC_NODE = 121.2837
ARG_OF_PERICENTER = 75.7835
MEAN_ANOMALY   = 284.3290

EPHEMERIS_TYPE = 0
CLASSIFICATION_TYPE = U
NORAD_CAT_ID   = 66625
ELEMENT_SET_NO = 999
REV_AT_EPOCH   = 635
BSTAR          = .16868E-2
MEAN_MOTION_DOT = .67664E-3
MEAN_MOTION_DDOT = 0

