STARLINK-36040          
1 66614U 25270AC  25360.70469852  .00049868  00000+0  11925-2 0  9990
2 66614  42.9990 111.8319 0001136 273.5808  86.4918 15.40718211  6345
STARLINK-35988          
1 66615U 25270AD  25359.68087844  .00044275  00000+0  10610-2 0  9990
2 66615  43.0013 117.9088 0001695 260.6340  99.4325 15.40700329  6181
STARLINK-35391          
1 66616U 25270AE  25360.70021929  .00083934  00000+0  19933-2 0  9990
2 66616  42.9999 111.7954 0001272 264.6614  95.4097 15.40717812  6611
STARLINK-35940          
1 66617U 25271A   25359.62811205  .00040863  00000+0  10268-2 0  9991
2 66617  53.1613 126.3554 0001206  97.0516 263.0626 15.39600088  6191
STARLINK-35970          
1 66618U 25271B   25360.75003471  .00090983  00000+0  22576-2 0  9999
2 66618  53.1604 120.3949 0000897  66.9018  11.5906 15.39618863  6064
STARLINK-35951          
1 66619U 25271C   25360.75478860  .00043071  00000+0  10804-2 0  9995
2 66619  53.1595 120.5838 0001178  71.2595 288.8538 15.39627642  6374
STARLINK-35936          
1 66620U 25271D   25360.63424738  .00031673  00000+0  79849-3 0  9999
2 66620  53.1589 121.2574 0001112  85.9433 274.1699 15.39621309  6353
STARLINK-35847          
1 66621U 25271E   25360.75003471  .00086219  00000+0  21464-2 0  9995
2 66621  53.1603 120.3431 0001387  60.0715  44.3218 15.39545718  6133
STARLINK-35950          
1 66622U 25271F   25359.80428759  .00021572  00000+0  54750-3 0  9996
2 66622  53.1597 125.3190 0001519  88.4563 271.6616 15.39633449  6221
STARLINK-35920          
1 66623U 25271G   25360.59254919  .00039641  00000+0  99486-3 0  9991
2 66623  53.1606 121.7067 0000427  62.2660 297.8388 15.39650130  6346
STARLINK-35927          
1 66624U 25271H   25360.75003471  .00075586  00000+0  18842-2 0  9999
2 66624  53.1600 120.5584 0000790  73.9280 285.5919 15.39568029  6059
STARLINK-35929          
1 66625U 25271J   25360.63888970  .00067664  00000+0  16868-2 0  9996
2 66625  53.1600 121.2837 0001083  75.7835 284.3290 15.39616872  6353
